IRIDIUM 26              
1 24903U 97043A   25151.40605684  .00000440  00000+0  14141-3 0  9999
2 24903  86.3942 117.6720 0002422  91.1990 268.9485 14.37132159454332
IRIDIUM 22              
1 24907U 97043E   25151.39170662  .00000381  00000+0  12452-3 0  9991
2 24907  86.3947 121.2026 0002366  87.3177 272.8291 14.35946816454365
DUMMY MASS 1            
1 24925U 97048A   25151.45885888  .00000415  00000+0  43272-4 0  9999
2 24925  86.3341 143.0635 0006002 184.5252 175.5920 14.86973134502648
DUMMY MASS 2            
1 24926U 97048B   25151.48552188  .00000399  00000+0  41706-4 0  9998
2 24926  86.3342 144.6548 0006263 199.4789 160.6198 14.86725447502429
IRIDIUM 29              
1 24944U 97051A   25151.49023381  .00000424  00000+0  13788-3 0  9998
2 24944  86.3959 150.8996 0002228  84.9249 275.2202 14.36453758450873
IRIDIUM 33              
1 24946U 97051C   25151.52349226  .00000268  00000+0  87380-4 0  9999
2 24946  86.3875 150.1444 0009625 123.6362 236.5754 14.34882711450356
IRIDIUM 28              
1 24948U 97051E   25151.54429651  .00000340  00000+0  10744-3 0  9994
2 24948  86.3963 148.4034 0002641  97.4859 262.6639 14.37374829451522
IRIDIUM 36              
1 24967U 97056C   25151.57982631  .00000377  00000+0  11920-3 0  9992
2 24967  86.3993 179.9699 0002581  89.7928 270.3565 14.37596927449836
